[
  {
    "Index": 1,
    "PokéStop": "Shoot if You Must This Old Gray Had, but Spare Your Countries Flag",
    "Street": "100 W. Patrick St",
    "City": "Frederick",
    "State": "MD",
    "Zip": 21701,
    "Latitude": 39.4136549566003,
    "Longitude": -77.4141633510589,
    "Area": "Downtown",
    "Notes": ""
  },
  {
    "Index": 2,
    "PokéStop": "Windswept",
    "Street": "100 W. Patrick St",
    "City": "Frederick",
    "State": "MD",
    "Zip": 21701,
    "Latitude": 39.4126644249832,
    "Longitude": -77.4128115177154,
    "Area": "Downtown",
    "Notes": ""
  },
  {
    "Index": 3,
    "PokéStop": "Frederick Court House Clock Tower",
    "Street": "100 W. Patrick St",
    "City": "Frederick",
    "State": "MD",
    "Zip": 21701,
    "Latitude": 39.4138704678914,
    "Longitude": -77.4124252796173,
    "Area": "Downtown",
    "Notes": ""
  },
  {
    "Index": 4,
    "PokéStop": "City Hall",
    "Street": "101 N Court St",
    "City": "Frederick",
    "State": "MD",
    "Zip": 21701,
    "Latitude": 39.4158887816872,
    "Longitude": -77.4124950170517,
    "Area": "Downtown",
    "Notes": ""
  },
  {
    "Index": 5,
    "PokéStop": "Bull Statue",
    "Street": "151 W Patrick St",
    "City": "Frederick",
    "State": "MD",
    "Zip": 21701,
    "Latitude": 39.4142144556875,
    "Longitude": -77.4141097068786,
    "Area": "Downtown",
    "Notes": "Address is law office, but it will get you there"
  },
  {
    "Index": 6,
    "PokéStop": "The Little Pottery Shop",
    "Street": "117 N East St",
    "City": "Frederick",
    "State": "MD",
    "Zip": 21701,
    "Latitude": 39.4156276889426,
    "Longitude": -77.4052155017852,
    "Area": "Downtown",
    "Notes": ""
  },
  {
    "Index": 7,
    "PokéStop": "Glory Donuts",
    "Street": "244 E Church St",
    "City": "Frederick",
    "State": "MD",
    "Zip": 21701,
    "Latitude": 39.4148444048415,
    "Longitude": -77.4054944515228,
    "Area": "Downtown",
    "Notes": ""
  },
  {
    "Index": 8,
    "PokéStop": "Frederick Rail Station",
    "Street": "100 S East St",
    "City": "Frederick",
    "State": "MD",
    "Zip": 21701,
    "Latitude": 39.4116738792935,
    "Longitude": -77.4056500196457,
    "Area": "Downtown",
    "Notes": ""
  },
  {
    "Index": 9,
    "PokéStop": "Bridge Mural",
    "Street": "42-70 S Carroll St",
    "City": "Frederick",
    "State": "MD",
    "Zip": 21701,
    "Latitude": 39.4124944997351,
    "Longitude": -77.407699227333,
    "Area": "Downtown",
    "Notes": "Carroll Creek"
  },
  {
    "Index": 10,
    "PokéStop": "Carroll Creek Bird Sculpture",
    "Street": "42-70 S Carroll St",
    "City": "Frederick",
    "State": "MD",
    "Zip": 21701,
    "Latitude": 39.4124862106881,
    "Longitude": -77.4069643020629,
    "Area": "Downtown",
    "Notes": "Carroll Creek"
  },
  {
    "Index": 11,
    "PokéStop": "B & O Railroad Station",
    "Street": "89 S Market St",
    "City": "Frederick",
    "State": "MD",
    "Zip": 21701,
    "Latitude": 39.4120178779271,
    "Longitude": -77.4112772941589,
    "Area": "Downtown",
    "Notes": "Address is to H & R Food, but it gets you there"
  },
  {
    "Index": 12,
    "PokéStop": "Roger Brooke Taney",
    "Street": "222-270 E 4th St",
    "City": "Frederick",
    "State": "MD",
    "Zip": 21701,
    "Latitude": 39.4187027192053,
    "Longitude": -77.4054729938507,
    "Area": "Downtown",
    "Notes": ""
  },
  {
    "Index": 13,
    "PokéStop": "St. John the Evangelist",
    "Street": "118 E 2nd St",
    "City": "Frederick",
    "State": "MD",
    "Zip": 21701,
    "Latitude": 39.4162037494112,
    "Longitude": -77.4075973033905,
    "Area": "Downtown",
    "Notes": ""
  },
  {
    "Index": 14,
    "PokéStop": "Hood College Clock",
    "Street": "401 Rosemont Ave",
    "City": "Frederick",
    "State": "MD",
    "Zip": 21701,
    "Latitude": 39.4216325746718,
    "Longitude": -77.4198013544082,
    "Area": "Hood College",
    "Notes": ""
  },
  {
    "Index": 15,
    "PokéStop": "The Pergola",
    "Street": "401 Rosemont Ave",
    "City": "Frederick",
    "State": "MD",
    "Zip": 21701,
    "Latitude": 39.4226312667072,
    "Longitude": -77.4186909198761,
    "Area": "Hood College",
    "Notes": ""
  },
  {
    "Index": 16,
    "PokéStop": "Brodbeck Music Hall",
    "Street": "401 Rosemont Ave",
    "City": "Frederick",
    "State": "MD",
    "Zip": 21701,
    "Latitude": 39.4212803354781,
    "Longitude": -77.4182939529419,
    "Area": "Hood College",
    "Notes": ""
  },
  {
    "Index": 17,
    "PokéStop": "Boys High School 1911",
    "Street": "430 Park Ave",
    "City": "Frederick",
    "State": "MD",
    "Zip": 21701,
    "Latitude": 39.4216864463916,
    "Longitude": -77.4161803722381,
    "Area": "Hood College",
    "Notes": ""
  },
  {
    "Index": 18,
    "PokéStop": "Schely Park",
    "Street": "N College Pkwy",
    "City": "Frederick",
    "State": "MD",
    "Zip": 21701,
    "Latitude": 39.4183421768546,
    "Longitude": -77.4187016487121,
    "Area": "Hood College",
    "Notes": ""
  },
  {
    "Index": 19,
    "PokéStop": "North Fourth Mural Project",
    "Street": "604 N Market St",
    "City": "Frederick",
    "State": "MD",
    "Zip": 21701,
    "Latitude": 39.4218812130309,
    "Longitude": -77.410038113594,
    "Area": "North Market Street (7th Street out to Rt. 26)",
    "Notes": ""
  },
  {
    "Index": 20,
    "PokéStop": "Staley Park Pavilion",
    "Street": "11 W. 10th St.",
    "City": "Frederick",
    "State": "MD",
    "Zip": 21701,
    "Latitude": 39.4286272619672,
    "Longitude": -77.4083644151687,
    "Area": "North Market Street (7th Street out to Rt. 26)",
    "Notes": "Staley Park"
  },
  {
    "Index": 21,
    "PokéStop": "Frederick Cal Ripken Baseball Association",
    "Street": "11 W. 10th St.",
    "City": "Frederick",
    "State": "MD",
    "Zip": 21701,
    "Latitude": 39.4281963299639,
    "Longitude": -77.4090671539306,
    "Area": "North Market Street (7th Street out to Rt. 26)",
    "Notes": "Staley Park"
  },
  {
    "Index": 22,
    "PokéStop": "YMCA of Frederick County",
    "Street": "1000 N Market St",
    "City": "Frederick",
    "State": "MD",
    "Zip": 21701,
    "Latitude": 39.4268372192664,
    "Longitude": -77.4073451757431,
    "Area": "North Market Street (7th Street out to Rt. 26)",
    "Notes": ""
  },
  {
    "Index": 23,
    "PokéStop": "Frederick Bicycle Coalition Pump Track",
    "Street": "N East St",
    "City": "Frederick",
    "State": "MD",
    "Zip": 21701,
    "Latitude": 39.4292653679235,
    "Longitude": -77.4029195308685,
    "Area": "North Market Street (7th Street out to Rt. 26)",
    "Notes": "Frederick Pump Track"
  },
  {
    "Index": 24,
    "PokéStop": "Rose Hill Manor Park",
    "Street": "1611 N Market St",
    "City": "Frederick",
    "State": "MD",
    "Zip": 21701,
    "Latitude": 39.4351945016318,
    "Longitude": -77.4034076929092,
    "Area": "North Market Street (7th Street out to Rt. 26)",
    "Notes": "Rose Hill Manor"
  },
  {
    "Index": 25,
    "PokéStop": "Rose Hill Manor Ice House",
    "Street": "1611 N Market St",
    "City": "Frederick",
    "State": "MD",
    "Zip": 21701,
    "Latitude": 39.4366901712461,
    "Longitude": -77.4061059951782,
    "Area": "North Market Street (7th Street out to Rt. 26)",
    "Notes": "Rose Hill Manor"
  },
  {
    "Index": 26,
    "PokéStop": "Farm And Family Exhibits",
    "Street": "1611 N Market St",
    "City": "Frederick",
    "State": "MD",
    "Zip": 21701,
    "Latitude": 39.4374814959196,
    "Longitude": -77.4070501327514,
    "Area": "North Market Street (7th Street out to Rt. 26)",
    "Notes": "Rose Hill Manor"
  },
  {
    "Index": 27,
    "PokéStop": "Original Ebert's Ice Cream Fountain",
    "Street": "1781 N Market St",
    "City": "Frederick",
    "State": "MD",
    "Zip": 21701,
    "Latitude": 39.4399797027855,
    "Longitude": -77.3988318443298,
    "Area": "North Market Street (7th Street out to Rt. 26)",
    "Notes": ""
  },
  {
    "Index": 28,
    "PokéStop": "River Walk Park",
    "Street": "Schifferstadt Blvd",
    "City": "Frederick",
    "State": "MD",
    "Zip": 21701,
    "Latitude": 39.4316354246005,
    "Longitude": -77.3891222476959,
    "Area": "North Market Street (7th Street out to Rt. 26)",
    "Notes": ""
  },
  {
    "Index": 29,
    "PokéStop": "Carillon",
    "Street": "121 N Bentz St",
    "City": "Frederick",
    "State": "MD",
    "Zip": 21701,
    "Latitude": 39.4156484106247,
    "Longitude": -77.4161159992218,
    "Area": "Baker Park/Culler",
    "Notes": "Bell Tower"
  },
  {
    "Index": 30,
    "PokéStop": "Monolith",
    "Street": "121 N Bentz St",
    "City": "Frederick",
    "State": "MD",
    "Zip": 21701,
    "Latitude": 39.4165477256946,
    "Longitude": -77.4152308702469,
    "Area": "Baker Park/Culler",
    "Notes": "Near Talley Rec Center"
  },
  {
    "Index": 31,
    "PokéStop": "Rawr",
    "Street": "500 Fleming Ave",
    "City": "Frederick",
    "State": "MD",
    "Zip": 21701,
    "Latitude": 39.4155406578103,
    "Longitude": -77.4197906255722,
    "Area": "Baker Park/Culler",
    "Notes": "Near Swimming Pool"
  },
  {
    "Index": 32,
    "PokéStop": "In Honor of David Ryan Mulkey",
    "Street": "Culler Lake",
    "City": "Frederick",
    "State": "MD",
    "Zip": 21701,
    "Latitude": 39.4173309906578,
    "Longitude": -77.4252301454544,
    "Area": "Baker Park/Culler",
    "Notes": "Culler Lake"
  },
  {
    "Index": 33,
    "PokéStop": "Sanford G. Blum Memorial Bench",
    "Street": "Culler Lake",
    "City": "Frederick",
    "State": "MD",
    "Zip": 21701,
    "Latitude": 39.4181018142516,
    "Longitude": -77.4245220422744,
    "Area": "Baker Park/Culler",
    "Notes": "Culler Lake, Frederick High School"
  },
  {
    "Index": 34,
    "PokéStop": "Schifferstadt Architectural Museum",
    "Street": "1110 Rosemont Ave",
    "City": "Frederick",
    "State": "MD",
    "Zip": 21701,
    "Latitude": 39.423497340745,
    "Longitude": -77.4269735813141,
    "Area": "Baker Park/Culler",
    "Notes": ""
  },
  {
    "Index": 35,
    "PokéStop": "Carrollton Park",
    "Street": "441-445 Center St",
    "City": "Frederick",
    "State": "MD",
    "Zip": 21701,
    "Latitude": 39.4029738798034,
    "Longitude": -77.4222904443741,
    "Area": "Baker Park/Culler",
    "Notes": ""
  },
  {
    "Index": 36,
    "PokéStop": "Trinity Methodist Church",
    "Street": "703 W Patrick St",
    "City": "Frederick",
    "State": "MD",
    "Zip": 21701,
    "Latitude": 39.4150101799886,
    "Longitude": -77.4308305978775,
    "Area": "Baker Park/Culler",
    "Notes": ""
  },
  {
    "Index": 37,
    "PokéStop": "Catoctin Park",
    "Street": "110-112 Catoctin Ave",
    "City": "Frederick",
    "State": "MD",
    "Zip": 21701,
    "Latitude": 39.4111848180734,
    "Longitude": -77.4256378412246,
    "Area": "Baker Park/Culler",
    "Notes": "Thomas Playground, Near China Garden & Rita's"
  },
  {
    "Index": 38,
    "PokéStop": "People's Baptist Church",
    "Street": "6648 Carpenter Rd",
    "City": "Frederick",
    "State": "MD",
    "Zip": 21703,
    "Latitude": 39.4152132540066,
    "Longitude": -77.4782681465149,
    "Area": "Route 40 (Waverly Side)",
    "Notes": ""
  },
  {
    "Index": 39,
    "PokéStop": "Barbara Fritchie",
    "Street": "1513 W Patrick St",
    "City": "Frederick",
    "State": "MD",
    "Zip": 21702,
    "Latitude": 39.423949021021,
    "Longitude": -77.4693846702575,
    "Area": "Route 40 (Waverly Side)",
    "Notes": ""
  },
  {
    "Index": 40,
    "PokéStop": "Baker Place Gazbeo",
    "Street": "1300 Baker Pl E",
    "City": "Frederick",
    "State": "MD",
    "Zip": 21702,
    "Latitude": 39.4237501163061,
    "Longitude": -77.4545735120773,
    "Area": "Route 40 (Waverly Side)",
    "Notes": ""
  },
  {
    "Index": 41,
    "PokéStop": "McD Extra Leet Fountain",
    "Street": "1275 W Patrick St",
    "City": "Frederick",
    "State": "MD",
    "Zip": 21702,
    "Latitude": 39.4188726293217,
    "Longitude": -77.4493646621704,
    "Area": "Route 40 (Waverly Side)",
    "Notes": "McDonalds (Rt. 40)"
  },
  {
    "Index": 42,
    "PokéStop": "Westridge Clock Tower",
    "Street": "1053 W Patrick St",
    "City": "Frederick",
    "State": "MD",
    "Zip": 21703,
    "Latitude": 39.4189803769858,
    "Longitude": -77.445330619812,
    "Area": "Route 40 (Waverly Side)",
    "Notes": ""
  },
  {
    "Index": 43,
    "PokéStop": "Dutch's Waterfall",
    "Street": "581 Himes Ave",
    "City": "Frederick",
    "State": "MD",
    "Zip": 21703,
    "Latitude": 39.4077737278963,
    "Longitude": -77.436870932579,
    "Area": "Route 40 (Hillcrest side)",
    "Notes": "Dutch's Daughter"
  },
  {
    "Index": 44,
    "PokéStop": "Hill Street Park",
    "Street": "100 Hill Street",
    "City": "Frederick",
    "State": "MD",
    "Zip": 21703,
    "Latitude": 39.41382487902,
    "Longitude": -77.4480557441711,
    "Area": "Route 40 (Hillcrest side)",
    "Notes": ""
  },
  {
    "Index": 45,
    "PokéStop": "Hill Street Park pavillion",
    "Street": "100 Hill Street",
    "City": "Frederick",
    "State": "MD",
    "Zip": 21703,
    "Latitude": 39.4121214916408,
    "Longitude": -77.4489086866378,
    "Area": "Route 40 (Hillcrest side)",
    "Notes": ""
  },
  {
    "Index": 46,
    "PokéStop": "Victory Baptist Church",
    "Street": "6513 Himes Ave",
    "City": "Frederick",
    "State": "MD",
    "Zip": 21703,
    "Latitude": 39.4031894241075,
    "Longitude": -77.4388772249222,
    "Area": "Route 40 (Hillcrest side)",
    "Notes": ""
  },
  {
    "Index": 47,
    "PokéStop": "Frederick Adventist Academy",
    "Street": "6437 Jefferson Pike",
    "City": "Frederick",
    "State": "MD",
    "Zip": 21703,
    "Latitude": 39.4023189526384,
    "Longitude": -77.4433672428131,
    "Area": "Route 40 (Hillcrest side)",
    "Notes": ""
  },
  {
    "Index": 48,
    "PokéStop": "Battle of Frederick",
    "Street": "996 W Patrick St",
    "City": "Frederick",
    "State": "MD",
    "Zip": 21703,
    "Latitude": 39.4157395859529,
    "Longitude": -77.4377882480621,
    "Area": "Route 40 (Hillcrest side)",
    "Notes": "Red Horse"
  },
  {
    "Index": 49,
    "PokéStop": "Ballenger Creek Trail Head",
    "Street": "5225 Corporate Dr",
    "City": "Frederick",
    "State": "MD",
    "Zip": 21703,
    "Latitude": 39.3776179072673,
    "Longitude": -77.4215394258499,
    "Area": "Ballenger Creek",
    "Notes": "Entrance is on Corporate Drive"
  },
  {
    "Index": 50,
    "PokéStop": "QR Fit Trail Station 2",
    "Street": "5433-5465 Duke Ct",
    "City": "Frederick",
    "State": "MD",
    "Zip": 21703,
    "Latitude": 39.3766683303903,
    "Longitude": -77.4246025085449,
    "Area": "Ballenger Creek",
    "Notes": "Have to park on Duke Ct and can walk down or walk from the trail head entrance"
  },
  {
    "Index": 51,
    "PokéStop": "Ballenger Trail End",
    "Street": "5250 Kingsbrook Dr",
    "City": "Frederick",
    "State": "MD",
    "Zip": 21703,
    "Latitude": 39.3768300496356,
    "Longitude": -77.4320697784424,
    "Area": "Ballenger Creek",
    "Notes": "Park at Ballenger Elementary and walk the trail to your left to the gym"
  },
  {
    "Index": 52,
    "PokéStop": "Jackson Chapel",
    "Street": "5609 Ballenger Creek Pike",
    "City": "Frederick",
    "State": "MD",
    "Zip": 21703,
    "Latitude": 39.386851765132,
    "Longitude": -77.4414843320846,
    "Area": "Ballenger Creek",
    "Notes": ""
  },
  {
    "Index": 53,
    "PokéStop": "Ballenger Creek Park Community Building",
    "Street": "5420 Ballenger Creek Pike",
    "City": "Frederick",
    "State": "MD",
    "Zip": 21703,
    "Latitude": 39.3838499624199,
    "Longitude": -77.4448639154434,
    "Area": "Ballenger Creek",
    "Notes": "Ballenger Creek Park"
  },
  {
    "Index": 54,
    "PokéStop": "Ballenger Creek Dog Park Sign",
    "Street": "5420 Ballenger Creek Pike",
    "City": "Frederick",
    "State": "MD",
    "Zip": 21703,
    "Latitude": 39.3811299854864,
    "Longitude": -77.448763847351,
    "Area": "Ballenger Creek",
    "Notes": "Ballenger Creek Park"
  },
  {
    "Index": 55,
    "PokéStop": "Tuscarora Creek Playground",
    "Street": "8916-8932 Walter Martz Rd",
    "City": "Frederick",
    "State": "MD",
    "Zip": 21702,
    "Latitude": 39.4714751063722,
    "Longitude": -77.4324184656143,
    "Area": "North End of Frederick",
    "Notes": "Tuscarora Creek Pool"
  },
  {
    "Index": 56,
    "PokéStop": "Willow Brook",
    "Street": "McClellan Dr",
    "City": "Frederick",
    "State": "MD",
    "Zip": 21702,
    "Latitude": 39.4681497917989,
    "Longitude": -77.4136644601822,
    "Area": "North End of Frederick",
    "Notes": ""
  },
  {
    "Index": 57,
    "PokéStop": "Science-Tech Hall",
    "Street": "7932 Opossumtown Pike",
    "City": "Frederick",
    "State": "MD",
    "Zip": 21702,
    "Latitude": 39.4510693336846,
    "Longitude": -77.4187660217285,
    "Area": "North End of Frederick",
    "Notes": "Frederick Community College"
  },
  {
    "Index": 58,
    "PokéStop": "Library Building",
    "Street": "7932 Opossumtown Pike",
    "City": "Frederick",
    "State": "MD",
    "Zip": 21702,
    "Latitude": 39.4527179214407,
    "Longitude": -77.4169635772705,
    "Area": "North End of Frederick",
    "Notes": "Frederick Community College"
  },
  {
    "Index": 59,
    "PokéStop": "Frederick Community College Campus Map",
    "Street": "7932 Opossumtown Pike",
    "City": "Frederick",
    "State": "MD",
    "Zip": 21702,
    "Latitude": 39.4519847603488,
    "Longitude": -77.4169152975082,
    "Area": "North End of Frederick",
    "Notes": "Frederick Community College"
  },
  {
    "Index": 60,
    "PokéStop": "International Community Church",
    "Street": "123 Byte Dr",
    "City": "Frederick",
    "State": "MD",
    "Zip": 21702,
    "Latitude": 39.4570090371682,
    "Longitude": -77.4100703001022,
    "Area": "North End of Frederick",
    "Notes": ""
  },
  {
    "Index": 61,
    "PokéStop": "Bike Sculpture",
    "Street": "140 Thomas Johnson Drive",
    "City": "Frederick",
    "State": "MD",
    "Zip": 21701,
    "Latitude": 39.4443751693185,
    "Longitude": -77.4070179462433,
    "Area": "North End of Frederick",
    "Notes": ""
  },
  {
    "Index": 62,
    "PokéStop": "Stone Fountain",
    "Street": "70 Thomas Johnson Dr #200",
    "City": "Frederick",
    "State": "MD",
    "Zip": 21702,
    "Latitude": 39.4494082799095,
    "Longitude": -77.4019807577133,
    "Area": "North End of Frederick",
    "Notes": ""
  },
  {
    "Index": 63,
    "PokéStop": "Pinecliff Park",
    "Street": "8350 Pinecliff Park Rd",
    "City": "Frederick",
    "State": "MD",
    "Zip": 21704,
    "Latitude": 39.3847994416031,
    "Longitude": -77.3771166801452,
    "Area": "East End of Frederick",
    "Notes": "Pinecliff Park"
  },
  {
    "Index": 64,
    "PokéStop": "Monocacy River Water Trail",
    "Street": "8350 Pinecliff Park Rd",
    "City": "Frederick",
    "State": "MD",
    "Zip": 21704,
    "Latitude": 39.3889620712352,
    "Longitude": -77.3784899711609,
    "Area": "East End of Frederick",
    "Notes": "Pinecliff Park"
  },
  {
    "Index": 65,
    "PokéStop": "Pinecliff Park Sled Run",
    "Street": "8350 Pinecliff Park Rd",
    "City": "Frederick",
    "State": "MD",
    "Zip": 21704,
    "Latitude": 39.3899073350023,
    "Longitude": -77.3745203018188,
    "Area": "East End of Frederick",
    "Notes": "Pinecliff Park"
  },
  {
    "Index": 66,
    "PokéStop": "General LaFayette",
    "Street": "1501-6851 E Patrick St",
    "City": "Frederick",
    "State": "MD",
    "Zip": 21701,
    "Latitude": 39.4048142751159,
    "Longitude": -77.3833930492401,
    "Area": "East End of Frederick",
    "Notes": "Near the MVA"
  },
  {
    "Index": 67,
    "PokéStop": "Frederick Welcome Mural - West",
    "Street": "1303 E Patrick St",
    "City": "Frederick",
    "State": "MD",
    "Zip": 21701,
    "Latitude": 39.4064681024453,
    "Longitude": -77.3860538005828,
    "Area": "East End of Frederick",
    "Notes": "BB&T Bank - park in Taco Bell parking lot during banking hours"
  },
  {
    "Index": 68,
    "PokéStop": "Towers of Eastgate Center",
    "Street": "1240 E Patrick St",
    "City": "Frederick",
    "State": "MD",
    "Zip": 21701,
    "Latitude": 39.4074587220884,
    "Longitude": -77.3898518085479,
    "Area": "East End of Frederick",
    "Notes": "By Roy Rogers"
  },
  {
    "Index": 69,
    "PokéStop": "Manasses J Grove Park",
    "Street": "Grove Park",
    "City": "Frederick",
    "State": "MD",
    "Zip": 21701,
    "Latitude": 39.4080721531386,
    "Longitude": -77.3966324329376,
    "Area": "East End of Frederick",
    "Notes": "Off of E. South Street, near the Fair Grounds"
  },
  {
    "Index": 70,
    "PokéStop": "Wegmans Cow",
    "Street": "7830 Wormans Mill Rd",
    "City": "Frederick",
    "State": "MD",
    "Zip": 21701,
    "Latitude": 39.4461316212512,
    "Longitude": -77.4000120162963,
    "Area": "Rt. 26",
    "Notes": "Can only reach the gym from the back loading dock"
  },
  {
    "Index": 71,
    "PokéStop": "Sprint Store",
    "Street": "7810 Wormans Mill Rd #24a",
    "City": "Frederick",
    "State": "MD",
    "Zip": 21701,
    "Latitude": 39.4467115720663,
    "Longitude": -77.3976302146911,
    "Area": "Rt. 26",
    "Notes": "Rt. 26"
  },
  {
    "Index": 72,
    "PokéStop": "Dead Ringer Moe's Portrait",
    "Street": "200 A Shorebird St.",
    "City": "Frederick",
    "State": "MD",
    "Zip": 21701,
    "Latitude": 39.4472293812127,
    "Longitude": -77.3951894044876,
    "Area": "Rt. 26",
    "Notes": "Noodles and Company is the address"
  },
  {
    "Index": 73,
    "PokéStop": "Monacy River Water Trail",
    "Street": "Riverside Park Boat Ramp",
    "City": "Frederick",
    "State": "MD",
    "Zip": 21701,
    "Latitude": 39.4439236214513,
    "Longitude": -77.3829102516174,
    "Area": "Rt. 26",
    "Notes": ""
  },
  {
    "Index": 74,
    "PokéStop": "Waterside Swimming Pool Silo",
    "Street": "Riverside Place",
    "City": "Frederick",
    "State": "MD",
    "Zip": 21701,
    "Latitude": 39.451951622942,
    "Longitude": -77.3750567436218,
    "Area": "Rt. 26",
    "Notes": "Off Rt. 26"
  },
  {
    "Index": 75,
    "PokéStop": "Walkersville Lanes",
    "Street": "44 W Pennsylvania Ave",
    "City": "Walkersville",
    "State": "MD",
    "Zip": 21793,
    "Latitude": 39.4847706351787,
    "Longitude": -77.3576706647873,
    "Area": "Biggs Ford Rd",
    "Notes": ""
  },
  {
    "Index": 76,
    "PokéStop": "St. Timothy Roman Catholic Church",
    "Street": "8651 Biggs Ford Road",
    "City": "Walkersville",
    "State": "MD",
    "Zip": 21793,
    "Latitude": 39.4819014010022,
    "Longitude": -77.3645424842834,
    "Area": "Biggs Ford Rd",
    "Notes": ""
  },
  {
    "Index": 77,
    "PokéStop": "Fountain Rock Park",
    "Street": "8500 Nature Center Pl",
    "City": "Walkersville",
    "State": "MD",
    "Zip": 21793,
    "Latitude": 39.4749410496641,
    "Longitude": -77.3692363500595,
    "Area": "Biggs Ford Rd",
    "Notes": ""
  },
  {
    "Index": 78,
    "PokéStop": "Fountain Rock Lime Kilns",
    "Street": "8599 Nature Center Pl",
    "City": "Walkersville",
    "State": "MD",
    "Zip": 21793,
    "Latitude": 39.4753178622435,
    "Longitude": -77.3678040504455,
    "Area": "Biggs Ford Rd",
    "Notes": ""
  },
  {
    "Index": 79,
    "PokéStop": "Jimmy McGee Memorial Park",
    "Street": "2190 Old Farm Dr",
    "City": "Frederick",
    "State": "MD",
    "Zip": 21702,
    "Latitude": 39.4435052120987,
    "Longitude": -77.4372518062591,
    "Area": "Rosemont/Yellow Springs",
    "Notes": "By Dunkin Donuts"
  },
  {
    "Index": 80,
    "PokéStop": "Walnut Ridge Ballpark",
    "Street": "1101-1153 Rocky Springs Rd",
    "City": "Frederick",
    "State": "MD",
    "Zip": 21702,
    "Latitude": 39.4387699686923,
    "Longitude": -77.4468219280243,
    "Area": "Rosemont/Yellow Springs",
    "Notes": ""
  },
  {
    "Index": 81,
    "PokéStop": "Yellow Springs Lions Club",
    "Street": "427 Center St",
    "City": "Frederick",
    "State": "MD",
    "Zip": 21701,
    "Latitude": 39.4767836851722,
    "Longitude": -77.4576902389526,
    "Area": "Rosemont/Yellow Springs",
    "Notes": ""
  },
  {
    "Index": 82,
    "PokéStop": "Brook Hill Church Bell",
    "Street": "8946 Indian Springs Rd",
    "City": "Frederick",
    "State": "MD",
    "Zip": 21702,
    "Latitude": 39.4797856272505,
    "Longitude": -77.4618154764175,
    "Area": "Rosemont/Yellow Springs",
    "Notes": "Brook Hill United Methodist Church"
  },
  {
    "Index": 83,
    "PokéStop": "Whittier Water Tower",
    "Street": "Highpoint View Ct",
    "City": "Frederick",
    "State": "MD",
    "Zip": 21702,
    "Latitude": 39.457021462795,
    "Longitude": -77.458484172821,
    "Area": "Rosemont/Yellow Springs",
    "Notes": ""
  },
  {
    "Index": 84,
    "PokéStop": "Whittier Liquors",
    "Street": "2401 Whittier Dr",
    "City": "Frederick",
    "State": "MD",
    "Zip": 21702,
    "Latitude": 39.4543623281275,
    "Longitude": -77.4470579624176,
    "Area": "Rosemont/Yellow Springs",
    "Notes": ""
  },
  {
    "Index": 85,
    "PokéStop": "Wetherburne Park",
    "Street": "Wetherburne Way",
    "City": "Frederick",
    "State": "MD",
    "Zip": 21702,
    "Latitude": 39.4571043002497,
    "Longitude": -77.4516069889068,
    "Area": "Rosemont/Yellow Springs",
    "Notes": ""
  },
  {
    "Index": 86,
    "PokéStop": "Francis Scott Key",
    "Street": "515 S Market St",
    "City": "Frederick",
    "State": "MD",
    "Zip": 21701,
    "Latitude": 39.4063396110004,
    "Longitude": -77.4129939079284,
    "Area": "New Design Road",
    "Notes": "Mt. Olive Cementary"
  },
  {
    "Index": 87,
    "PokéStop": "Key Memorial Chapel",
    "Street": "515 S Market St",
    "City": "Frederick",
    "State": "MD",
    "Zip": 21701,
    "Latitude": 39.406244278485,
    "Longitude": -77.4136966466903,
    "Area": "New Design Road",
    "Notes": "Mt. Olive Cementary"
  },
  {
    "Index": 88,
    "PokéStop": "Frederick County World War II Memorial",
    "Street": "515 S Market St",
    "City": "Frederick",
    "State": "MD",
    "Zip": 21701,
    "Latitude": 39.4003499889998,
    "Longitude": -77.4178433418274,
    "Area": "New Design Road",
    "Notes": "Mt. Olive Cementary"
  },
  {
    "Index": 89,
    "PokéStop": "Thomas Tabernalce Holiness Church",
    "Street": "517 S Market St",
    "City": "Frederick",
    "State": "MD",
    "Zip": 21701,
    "Latitude": 39.4055230630595,
    "Longitude": -77.412012219429,
    "Area": "New Design Road",
    "Notes": ""
  },
  {
    "Index": 90,
    "PokéStop": "Loats Park",
    "Street": "21 Stadium Dr",
    "City": "Frederick",
    "State": "MD",
    "Zip": 21703,
    "Latitude": 39.4026961582756,
    "Longitude": -77.4137556552887,
    "Area": "New Design Road",
    "Notes": "Keys Stadium"
  },
  {
    "Index": 91,
    "PokéStop": "Three Fountains",
    "Street": "7101 Guilford Drive, Suite 204",
    "City": "Frederick",
    "State": "MD",
    "Zip": 21701,
    "Latitude": 39.3954957380735,
    "Longitude": -77.4184173345566,
    "Area": "New Design Road",
    "Notes": ""
  },
  {
    "Index": 92,
    "PokéStop": "Parkway Church",
    "Street": "5665 New Design Rd",
    "City": "Frederick",
    "State": "MD",
    "Zip": 21703,
    "Latitude": 39.3892481392528,
    "Longitude": -77.422467470169,
    "Area": "New Design Road",
    "Notes": ""
  },
  {
    "Index": 93,
    "PokéStop": "Church of the Redeemer",
    "Street": "5606 Buckeystown Pike",
    "City": "Frederick",
    "State": "MD",
    "Zip": 21704,
    "Latitude": 39.3864910580955,
    "Longitude": -77.4127793312072,
    "Area": "Rt. 355/Rt. 85",
    "Notes": "By Sam's Club"
  },
  {
    "Index": 94,
    "PokéStop": "FSK Mall Charity Fountain",
    "Street": "5500 Buckeystown Pike",
    "City": "Frederick",
    "State": "MD",
    "Zip": 21703,
    "Latitude": 39.3826475466645,
    "Longitude": -77.4057573080062,
    "Area": "Rt. 355/Rt. 85",
    "Notes": "FSK Mall"
  },
  {
    "Index": 95,
    "PokéStop": "Sprint Store (Westview)",
    "Street": "5010 Buckeystown Pike #124",
    "City": "Frederick",
    "State": "MD",
    "Zip": 21704,
    "Latitude": 39.3714723819377,
    "Longitude": -77.4125057458877,
    "Area": "Rt. 355/Rt. 85",
    "Notes": ""
  },
  {
    "Index": 96,
    "PokéStop": "Westview Fountain",
    "Street": "5243 Buckeystown Pike",
    "City": "Frederick",
    "State": "MD",
    "Zip": 21704,
    "Latitude": 39.3743959280462,
    "Longitude": -77.4124789237976,
    "Area": "Rt. 355/Rt. 85",
    "Notes": ""
  },
  {
    "Index": 97,
    "PokéStop": "Gambril Red Trail",
    "Street": "8602 Gambrill Park Rd",
    "City": "Frederick",
    "State": "MD",
    "Zip": 21702,
    "Latitude": 39.4608028921426,
    "Longitude": -77.4886912107467,
    "Area": "Rosemont/Yellow Springs",
    "Notes": ""
  }
]
